{
    "satellites": [
        {
            "name": "starlink302",
            "title": "Starlink-302 (G10-27)",
            "tle": [
                "1 70285C 25212AD  25275.06020833 -.01634300  00000+0 -67935-2 0  2754",
                "2 70285  53.1556   6.4565 0000851  55.5018 224.0494 15.86682949    17"
            ],
            "stdMag": 5,
            "noradId": "70285",
            "tleUrl": "http://celestrak.org/NORAD/elements/supplemental/sup-gp.php?FILE=starlink&FORMAT=tle",
            "launchDate": "2025-09-21T10:53:00.000Z",
            "active": true,
            "batch": [
                {
                    "noradId": "70285",
                    "tle": [
                        "1 70285C 25212AD  25275.06020833 -.01634300  00000+0 -67935-2 0  2754",
                        "2 70285  53.1556   6.4565 0000851  55.5018 224.0494 15.86682949    17"
                    ]
                },
                {
                    "noradId": "70284",
                    "tle": [
                        "1 70284C 25212AC  25275.06090278 -.01605900  00000+0 -66694-2 0  2758",
                        "2 70284  53.1556   6.4594 0000826  56.9605 223.4872 15.86672443    18"
                    ]
                },
                {
                    "noradId": "70283",
                    "tle": [
                        "1 70283C 25212AB  25275.05881944 -.01587400  00000+0 -65858-2 0  2759",
                        "2 70283  53.1557   6.4757 0000927  54.5238 211.0691 15.86674959    13"
                    ]
                },
                {
                    "noradId": "70281",
                    "tle": [
                        "1 70281C 25212Z   25275.06020833 -.01578300  00000+0 -65484-2 0  2754",
                        "2 70281  53.1553   6.4745 0000956  56.3382 214.5491 15.86664931    11"
                    ]
                },
                {
                    "noradId": "70282",
                    "tle": [
                        "1 70282C 25212AA  25275.05673611 -.01563600  00000+0 -64819-2 0  2750",
                        "2 70282  53.1559   6.4975 0000921  58.8102 189.5118 15.86667727    15"
                    ]
                },
                {
                    "noradId": "70280",
                    "tle": [
                        "1 70280C 25212Y   25275.05743056 -.01555000  00000+0 -64419-2 0  2750",
                        "2 70280  53.1558   6.5004 0000795  58.3027 191.0225 15.86672083    14"
                    ]
                },
                {
                    "noradId": "70278",
                    "tle": [
                        "1 70278C 25212W   25275.05743056 -.01538800  00000+0 -63820-2 0  2751",
                        "2 70278  53.1560   6.5093 0000894  56.9067 188.0861 15.86632006    13"
                    ]
                },
                {
                    "noradId": "70279",
                    "tle": [
                        "1 70279C 25212X   25275.05951389 -.01545600  00000+0 -64050-2 0  2754",
                        "2 70279  53.1562   6.4950 0000888  55.4455 203.2748 15.86655688    10"
                    ]
                },
                {
                    "noradId": "70277",
                    "tle": [
                        "1 70277C 25212V   25275.05743056 -.01537400  00000+0 -63801-2 0  2754",
                        "2 70277  53.1565   6.5138 0000892  57.6473 185.2955 15.86617457    10"
                    ]
                },
                {
                    "noradId": "70276",
                    "tle": [
                        "1 70276C 25212U   25275.05881944 -.01529100  00000+0 -63490-2 0  2754",
                        "2 70276  53.1565   6.5116 0000794  62.7683 185.7881 15.86598456    16"
                    ]
                },
                {
                    "noradId": "70274",
                    "tle": [
                        "1 70274C 25212S   25275.05534722 -.01506200  00000+0 -62525-2 0  2755",
                        "2 70274  53.1566   6.5441 0001045  57.8870 163.5894 15.86579255    13"
                    ]
                },
                {
                    "noradId": "70275",
                    "tle": [
                        "1 70275C 25212T   25275.05951389 -.01614400  00000+0 -41063-2 0  2754",
                        "2 70275  53.1550   6.0269 0000614  65.0402  58.1846 15.96336069    14"
                    ]
                },
                {
                    "noradId": "70273",
                    "tle": [
                        "1 70273C 25212R   25275.05534722 -.01533000  00000+0 -39059-2 0  2758",
                        "2 70273  53.1550   6.0606 0000592  71.5629  21.9056 15.96220606    15"
                    ]
                },
                {
                    "noradId": "70272",
                    "tle": [
                        "1 70272C 25212Q   25275.05465278 -.01493500  00000+0 -61953-2 0  2754",
                        "2 70272  53.1566   6.5537 0001010  51.9122 162.7441 15.86581283    17"
                    ]
                },
                {
                    "noradId": "70271",
                    "tle": [
                        "1 70271C 25212P   25275.05604167 -.01475700  00000+0 -61209-2 0  2751",
                        "2 70271  53.1567   6.5575 0001033  55.3756 162.1039 15.86564678    11"
                    ]
                },
                {
                    "noradId": "70270",
                    "tle": [
                        "1 70270C 25212N   25275.05395833 -.01509900  00000+0 -62612-2 0  2756",
                        "2 70270  53.1554   6.5472 0000976  58.2740 157.2190 15.86605228    12"
                    ]
                },
                {
                    "noradId": "70269",
                    "tle": [
                        "1 70269C 25212M   25275.05465278 -.01460000  00000+0 -60588-2 0  2752",
                        "2 70269  53.1566   6.5741 0000918  57.5168 147.5181 15.86538967    11"
                    ]
                },
                {
                    "noradId": "70268",
                    "tle": [
                        "1 70268C 25212L   25275.05604167 -.01449700  00000+0 -37052-2 0  2757",
                        "2 70268  53.1549   6.0692 0000878  54.0744  37.7103 15.96075321    13"
                    ]
                },
                {
                    "noradId": "70267",
                    "tle": [
                        "1 70267C 25212K   25275.05256944 -.01465200  00000+0 -60734-2 0  2758",
                        "2 70267  53.1560   6.5804 0000948  57.6151 137.4390 15.86568024    16"
                    ]
                },
                {
                    "noradId": "70266",
                    "tle": [
                        "1 70266C 25212J   25275.05812500 -.01417600  00000+0 -58836-2 0  2754",
                        "2 70266  53.1566   6.5826 0000972  60.2012 152.1586 15.86493100    11"
                    ]
                },
                {
                    "noradId": "70265",
                    "tle": [
                        "1 70265C 25212H   25275.05743056 -.01396100  00000+0 -57935-2 0  2752",
                        "2 70265  53.1570   6.5967 0001008  54.5778 148.7886 15.86474092    10"
                    ]
                },
                {
                    "noradId": "70264",
                    "tle": [
                        "1 70264C 25212G   25275.05326389 -.01449400  00000+0 -60132-2 0  2752",
                        "2 70264  53.1560   6.5862 0000917  63.0862 131.4796 15.86533700    10"
                    ]
                },
                {
                    "noradId": "70263",
                    "tle": [
                        "1 70263C 25212F   25275.05534722 -.01436900  00000+0 -59645-2 0  2751",
                        "2 70263  53.1560   6.5856 0000953  57.1621 144.6247 15.86509016    19"
                    ]
                },
                {
                    "noradId": "70262",
                    "tle": [
                        "1 70262C 25212E   25275.05812500 -.01425100  00000+0 -59167-2 0  2752",
                        "2 70262  53.1563   6.5770 0001035  58.9725 156.0708 15.86493437    10"
                    ]
                },
                {
                    "noradId": "70261",
                    "tle": [
                        "1 70261C 25212D   25275.05673611 -.01406400  00000+0 -58370-2 0  2756",
                        "2 70261  53.1560   6.5946 0000935  58.6172 143.4280 15.86481409    13"
                    ]
                },
                {
                    "noradId": "70260",
                    "tle": [
                        "1 70260C 25212C   25275.05812500 -.01380100  00000+0 -57252-2 0  2753",
                        "2 70260  53.1564   6.5992 0000905  63.8057 140.7402 15.86464250    15"
                    ]
                },
                {
                    "noradId": "70259",
                    "tle": [
                        "1 70259C 25212B   25275.05465278 -.01355800  00000+0 -56192-2 0  2758",
                        "2 70259  53.1562   6.6227 0001058  51.8049 129.9611 15.86458819    16"
                    ]
                },
                {
                    "noradId": "70258",
                    "tle": [
                        "1 70258C 25212A   25275.05465278 -.01350700  00000+0 -56046-2 0  2759",
                        "2 70258  53.1563   6.6264 0001034  57.8512 122.2100 15.86428363    12"
                    ]
                }
            ]
        }
    ],
    "config": {}
}